LEMUR-2-PETERG          
1 42841U 17042S   26068.48235713  .00023240  00000+0  81076-3 0  9993
2 42841  97.3980 253.6596 0003700 341.6938  18.4169 15.29611459473171
STARLINK-34392          
1 64451U 25130P   26068.45851903  .00035532  00000+0  12064-2 0  9990
2 64451  53.1595  89.8922 0001337  93.8643 266.2511 15.30191197 40661
