[{"OBJECT_NAME":"LEMUR-2-PETERG","OBJECT_ID":"2017-042S","EPOCH":"2026-03-09T11:34:35.656032","MEAN_MOTION":15.29611459,"ECCENTRICITY":0.00037,"INCLINATION":97.398,"RA_OF_ASC_NODE":253.6596,"ARG_OF_PERICENTER":341.6938,"MEAN_ANOMALY":18.4169,"EPHEMERIS_TYPE":0,"CLASSIFICATION_TYPE":"U","NORAD_CAT_ID":42841,"ELEMENT_SET_NO":999,"REV_AT_EPOCH":47317,"BSTAR":0.00081076471,"MEAN_MOTION_DOT":0.0002324,"MEAN_MOTION_DDOT":0},{"OBJECT_NAME":"STARLINK-34392","OBJECT_ID":"2025-130P","EPOCH":"2026-03-09T11:00:16.044192","MEAN_MOTION":15.30191197,"ECCENTRICITY":0.00013373,"INCLINATION":53.1595,"RA_OF_ASC_NODE":89.8922,"ARG_OF_PERICENTER":93.8643,"MEAN_ANOMALY":266.2511,"EPHEMERIS_TYPE":0,"CLASSIFICATION_TYPE":"U","NORAD_CAT_ID":64451,"ELEMENT_SET_NO":999,"REV_AT_EPOCH":4066,"BSTAR":0.0012063987,"MEAN_MOTION_DOT":0.00035532,"MEAN_MOTION_DDOT":0}]
